GSAT0221 (GALILEO 25)   
1 43564U 18060A   22229.47301533 -.00000092  00000+0  00000+0 0  9990
2 43564  57.1967  19.5354 0001869 249.2084 110.7722  1.70476003 25307
GSAT0222 (GALILEO 26)   
1 43565U 18060B   22231.45264121 -.00000090  00000+0  00000+0 0  9991
2 43565  57.1997  19.4823 0001287 263.1212  96.8674  1.70476077 25382
GSAT0219 (GALILEO 23)   
1 43566U 18060C   22231.08660180 -.00000090  00000+0  00000+0 0  9996
2 43566  57.1983  19.4941 0000916 257.9811 102.0115  1.70476064 25356
GSAT0220 (GALILEO 24)   
1 43567U 18060D   22231.30675988 -.00000090  00000+0  00000+0 0  9994
2 43567  57.2002  19.4878 0001340 244.7141 115.2751  1.70476021 25345
BEIDOU-3 M9             
1 43581U 18062A   22231.39511088  .00000073  00000+0  00000+0 0  9991
2 43581  54.2611 229.9289 0006021 271.0829  73.1223  1.86231898 27598
BEIDOU-3 M10            
1 43582U 18062B   22231.53479223  .00000074  00000+0  00000+0 0  9993
2 43582  54.2607 229.9142 0004816 335.9099 193.7858  1.86232254 27603
BEIDOU-3 M11            
1 43602U 18067A   22231.48387906  .00000074  00000+0  00000+0 0  9991
2 43602  54.3436 228.5361 0006644   0.1491 176.7041  1.86231617 27093
BEIDOU-3 M12            
1 43603U 18067B   22231.43442450  .00000074  00000+0  00000+0 0  9993
2 43603  54.3406 228.5043 0004032 340.5171  73.5414  1.86231561 27112
BEIDOU-3 M13            
1 43622U 18072A   22231.11219120 -.00000057  00000+0  00000+0 0  9993
2 43622  55.5137 109.2507 0006115 297.2733 289.8646  1.86231872 26611
BEIDOU-3 M14            
1 43623U 18072B   22231.36268642 -.00000058  00000+0  00000+0 0  9995
2 43623  55.5159 109.2336 0004349 328.0808 157.2401  1.86231904 26623
BEIDOU-3 M15            
1 43647U 18078A   22231.36256010 -.00000121  00000+0  10000-3 0  9999
2 43647  55.1013 348.4394 0005527  13.3854   7.4533  1.86232679 26137
BEIDOU-3 M16            
1 43648U 18078B   22231.47332781 -.00000122  00000+0  00000+0 0  9998
2 43648  55.0972 348.4409 0003797  33.1939 329.5844  1.86232283 26155
BEIDOU-3 G1             
1 43683U 18085A   22231.53010498 -.00000284  00000+0  00000+0 0  9999
2 43683   0.9566 156.0296 0004482  17.0145 125.7131  1.00272317 14049
COSMOS 2529 [GLONASS-M] 
1 43687U 18086A   22231.38291429  .00000081  00000+0  00000+0 0  9996
2 43687  64.3571 240.0073 0011925 262.8423 192.4310  2.13102141 29508
BEIDOU-3 M17            
1 43706U 18093A   22231.08308347  .00000072  00000+0  00000+0 0  9991
2 43706  54.3438 229.8291 0011241 273.6682  86.2126  1.86232082 25504
BEIDOU-3 M18            
1 43707U 18093B   22231.60269402  .00000075  00000+0  00000+0 0  9991
2 43707  54.3432 229.8027 0009426 294.4971 145.0327  1.86232215 25505
NAVSTAR 77 (USA 289)    
1 43873U 18109A   22231.22199918 -.00000029  00000+0  00000+0 0  9995
2 43873  55.0994 147.4178 0019804 191.2315 334.9619  2.00553182 27038
